NORAD_CAT_ID,OBJECT_NAME,OBJECT_TYPE,EPOCH,MEAN_MOTION,ECCENTRICITY,INCLINATION,RA_OF_ASC_NODE,ARG_OF_PERICENTER,MEAN_ANOMALY,BSTAR,MEAN_MOTION_DOT,MEAN_MOTION_DDOT,TLE_LINE0,TLE_LINE1,TLE_LINE2,SEMIMAJOR_AXIS,PERIOD,APOGEE,PERIGEE,DECAYED
52383.0,STARLINK-3811,PAYLOAD,2022-10-22 22:00:00,15.08813448,0.0002322,53.2182,317.7371,24.3903,83.8701,0.0034468,0.00054957,0.0,0 STARLINK-3811,1 52383U 22045BE  22295.91667824  .00054957  00000-0  34468-2 0  9994,2 52383  53.2182 317.7371 0002322  24.3903  83.8701 15.08813448  1306,6917.962,95.439,541.433,538.22,0.0
52383.0,STARLINK-3811,PAYLOAD,2022-10-23 00:00:02,15.08824058,0.0002315,53.2182,317.3628,25.9007,175.3153,0.0029955,0.00047688,0.0,0 STARLINK-3811,1 52383U 22045BE  22296.00002315  .00047688  00000-0  29955-2 0  9991,2 52383  53.2182 317.3628 0002315  25.9007 175.3153 15.08824058 29814,6917.929,95.439,541.396,538.193,0.0
52383.0,STARLINK-3811,PAYLOAD,2022-10-23 14:00:01,15.08858454,0.0002598,53.2176,314.7459,23.6213,107.8386,0.00068415,0.00010623,0.0,0 STARLINK-3811,1 52383U 22045BE  22296.58334491  .00010623  00000-0  68415-3 0  9991,2 52383  53.2176 314.7459 0002598  23.6213 107.8386 15.08858454 29902,6917.824000000001,95.436,541.486,537.8919999999998,0.0
52383.0,STARLINK-3811,PAYLOAD,2022-10-23 22:00:00,15.08841228,0.0002345,53.2175,313.2479,25.7557,117.3324,-0.00080308,-0.00013048,0.0,0 STARLINK-3811,1 52383U 22045BE  22296.91667824 -.00013048  00000-0 -80308-3 0  9998,2 52383  53.2175 313.2479 0002345  25.7557 117.3324 15.08841228  1304,6917.877,95.437,541.364,538.119,0.0
52383.0,STARLINK-3811,PAYLOAD,2022-10-24 06:00:00,15.08840542,0.0002478,53.2174,311.7527,26.5097,128.1733,-0.004173,-0.00066097,0.0,0 STARLINK-3811,1 52383U 22045BE  22297.25001157 -.00066097  00000-0 -41730-2 0  9994,2 52383  53.2174 311.7527 0002478  26.5097 128.1733 15.08840542 30006,6917.879,95.438,541.4580000000002,538.029,0.0
52383.0,STARLINK-3811,PAYLOAD,2022-10-24 14:00:01,15.08800556,0.00026,53.2169,310.2566,24.20300000000001,142.0456,0.00085887,0.00013393,0.0,0 STARLINK-3811,1 52383U 22045BE  22297.58334491  .00013393  00000-0  85887-3 0  9991,2 52383  53.2169 310.2566 0002600  24.2030 142.0456 15.08800556  1305,6918.001,95.44,541.665,538.067,0.0
52383.0,STARLINK-3811,PAYLOAD,2022-10-24 22:00:00,15.0878904,0.0002395,53.2168,308.7586,27.4783,150.3301,0.0029728,0.00047277,0.0,0 STARLINK-3811,1 52383U 22045BE  22297.91667824  .00047277  00000-0  29728-2 0  9996,2 52383  53.2168 308.7586 0002395  27.4783 150.3301 15.08789040  1304,6918.036,95.441,541.558,538.244,0.0
52383.0,STARLINK-3811,PAYLOAD,2022-10-25 00:00:00,15.087995199999998,0.000239,53.217,308.3845,28.8711,241.8204,0.0022598,0.00035821,0.0,0 STARLINK-3811,1 52383U 22045BE  22298.00001157  .00035821  00000-0  22598-2 0  9998,2 52383  53.2170 308.3845 0002390  28.8711 241.8204 15.08799520 30115,6918.004,95.44,541.523,538.216,0.0
52383.0,STARLINK-3811,PAYLOAD,2022-10-25 14:00:01,15.08826185,0.0002674,53.2166,305.7673,26.5518,174.3747,9.4619e-05,1.217e-05,0.0,0 STARLINK-3811,1 52383U 22045BE  22298.58334491  .00001217  00000-0  94619-4 0  9998,2 52383  53.2166 305.7673 0002674  26.5518 174.3747 15.08826185 30205,6917.9230000000025,95.438,541.637,537.938,0.0
52383.0,STARLINK-3811,PAYLOAD,2022-10-25 22:00:01,15.0881059,0.0002501,53.2167,304.2692,29.9758,182.5997,0.0028835,0.00045866,0.0,0 STARLINK-3811,1 52383U 22045BE  22298.91668981  .00045866  00000-0  28835-2 0  9992,2 52383  53.2167 304.2692 0002501  29.9758 182.5997 15.08810590  1303,6917.97,95.439,541.565,538.105,0.0
52383.0,STARLINK-3811,PAYLOAD,2022-10-26 14:00:01,15.08854145,0.0002778,53.2168,301.2778,28.9358,206.7475,-0.00041752,-6.929999999999999e-05,0.0,0 STARLINK-3811,1 52383U 22045BE  22299.58334491 -.00006930  00000-0 -41752-3 0  9997,2 52383  53.2168 301.2778 0002778  28.9358 206.7475 15.08854145  1301,6917.837,95.437,541.624,537.78,0.0
52383.0,STARLINK-3811,PAYLOAD,2022-10-26 16:00:01,15.0886431,0.0002734,53.217,300.9031,29.5304,299.1151,-0.0018152,-0.00029082,0.0,0 STARLINK-3811,1 52383U 22045BE  22299.66668981 -.00029082  00000-0 -18152-2 0  9990,2 52383  53.2170 300.9031 0002734  29.5304 299.1151 15.08864310 30373,6917.806,95.436,541.562,537.78,0.0
52383.0,STARLINK-3811,PAYLOAD,2022-10-26 22:00:00,15.08836904,0.0002612,53.2171,299.7797,32.1522,215.1448,0.0024009,0.00038127,0.0,0 STARLINK-3811,1 52383U 22045BE  22299.91667824  .00038127  00000-0  24009-2 0  9999,2 52383  53.2171 299.7797 0002612  32.1522 215.1448 15.08836904  1301,6917.89,95.438,541.562,537.948,0.0
52383.0,STARLINK-3811,PAYLOAD,2022-10-27 08:00:01,15.08838539,0.0002844,53.2175,297.9109,30.5007,321.3201,0.00027918,4.157e-05,0.0,0 STARLINK-3811,1 52383U 22045BE  22300.33334491  .00004157  00000-0  27918-3 0  9998,2 52383  53.2175 297.9109 0002844  30.5007 321.3201 15.08838539 30472,6917.885,95.438,541.717,537.7819999999998,0.0
52383.0,STARLINK-3811,PAYLOAD,2022-10-27 14:00:01,15.08858193,0.0002803,53.2174,296.788,29.1166,241.4596,-0.0007218,-0.00011764,0.0,0 STARLINK-3811,1 52383U 22045BE  22300.58335648 -.00011764  00000-0 -72180-3 0  9995,2 52383  53.2174 296.7880 0002803  29.1166 241.4596 15.08858193  1306,6917.825,95.436,541.629,537.751,0.0
52383.0,STARLINK-3811,PAYLOAD,2022-10-27 22:00:00,15.08848941,0.0002627,53.2177,295.2901,32.3916,249.7365,0.00077659,0.00012096,0.0,0 STARLINK-3811,1 52383U 22045BE  22300.91667824  .00012096  00000-0  77659-3 0  9999,2 52383  53.2177 295.2901 0002627  32.3916 249.7365 15.08848941  1305,6917.853,95.437,541.535,537.901,0.0
52383.0,STARLINK-3811,PAYLOAD,2022-10-28 08:00:01,15.08841577,0.0002838,53.2181,293.4216,29.9406,356.7741,0.0007913,0.00012329,0.0,0 STARLINK-3811,1 52383U 22045BE  22301.33335648  .00012329  00000-0  79130-3 0  9997,2 52383  53.2181 293.4216 0002838  29.9406 356.7741 15.08841577 30621,6917.876,95.437,541.7040000000002,537.7769999999998,0.0
52383.0,STARLINK-3811,PAYLOAD,2022-10-28 14:00:01,15.08873723,0.0002764,53.218,292.2987,28.4268,276.983,-0.0038805,-0.0006157999999999,0.0,0 STARLINK-3811,1 52383U 22045BE  22301.58335648 -.00061580  00000-0 -38805-2 0  9992,2 52383  53.2180 292.2987 0002764  28.4268 276.9830 15.08873723  1303,6917.776999999999,95.435,541.554,537.73,0.0
52383.0,STARLINK-3811,PAYLOAD,2022-10-28 22:00:01,15.08833254,0.0002554,53.2184,290.8009,30.855,286.1662,0.00086093,0.00013438,0.0,0 STARLINK-3811,1 52383U 22045BE  22301.91668981  .00013438  00000-0  86093-3 0  9998,2 52383  53.2184 290.8009 0002554  30.8550 286.1662 15.08833254  1305,6917.901,95.438,541.533,537.999,0.0
52383.0,STARLINK-3811,PAYLOAD,2022-10-29 10:00:00,15.08806458,0.0002798,53.2183,288.5586,27.502,126.8497,0.0038445999999999,0.00061378,0.0,0 STARLINK-3811,1 52383U 22045BE  22302.41667824  .00061378  00000-0  38446-2 0  9993,2 52383  53.2183 288.5586 0002798  27.5020 126.8497 15.08806458 30789,6917.983,95.44,541.784,537.9119999999998,0.0
52383.0,STARLINK-3811,PAYLOAD,2022-10-29 12:00:00,15.08833128,0.0002777,53.2182,288.1843,27.7879,219.4507,0.0010934,0.00017153,0.0,0 STARLINK-3811,1 52383U 22045BE  22302.50001157  .00017153  00000-0  10934-2 0  9998,2 52383  53.2182 288.1843 0002777  27.7879 219.4507 15.08833128  1302,6917.901,95.438,541.687,537.845,0.0
52383.0,STARLINK-3811,PAYLOAD,2022-10-29 22:00:01,15.08860676,0.0002477,53.2185,286.3121,30.9119,320.9132,8.8761e-05,1.125e-05,0.0,0 STARLINK-3811,1 52383U 22045BE  22302.91668981  .00001125  00000-0  88761-4 0  9994,2 52383  53.2185 286.3121 0002477  30.9119 320.9132 15.08860676  1304,6917.816999999999,95.436,541.396,537.969,0.0
52383.0,STARLINK-3811,PAYLOAD,2022-10-30 14:00:01,15.08837904,0.0002531,53.218,283.3206,25.0348,349.9468,-0.0027204,-0.00043323,0.0,0 STARLINK-3811,1 52383U 22045BE  22303.58334491 -.00043323  00000-0 -27204-2 0  9995,2 52383  53.2180 283.3206 0002531  25.0348 349.9468 15.08837904  1301,6917.887,95.438,541.503,538.001,0.0
52383.0,STARLINK-3811,PAYLOAD,2022-10-30 22:00:01,15.08812917,0.0002373,53.2182,281.8235,29.3097,357.3091,0.00029327,4.379e-05,0.0,0 STARLINK-3811,1 52383U 22045BE  22303.91668981  .00004379  00000-0  29327-3 0  9991,2 52383  53.2182 281.8235 0002373  29.3097 357.3091 15.08812917  1302,6917.9630000000025,95.439,541.47,538.187,0.0
52383.0,STARLINK-3811,PAYLOAD,2022-10-31 14:00:01,15.08835148,0.0002561,53.2175,278.832,29.6611,20.0162,-0.0011075999999999,-0.00017871,0.0,0 STARLINK-3811,1 52383U 22045BE  22304.58334491 -.00017871  00000-0 -11076-2 0  9995,2 52383  53.2175 278.8320 0002561  29.6611  20.0162 15.08835148  1303,6917.895,95.438,541.5319999999998,537.989,0.0
52383.0,STARLINK-3811,PAYLOAD,2022-10-31 22:00:01,15.08831079,0.000241,53.2175,277.335,33.5674,27.7562,0.0025465,0.00040464,0.0,0 STARLINK-3811,1 52383U 22045BE  22304.91668981  .00040464  00000-0  25465-2 0  9995,2 52383  53.2175 277.3350 0002410  33.5674  27.7562 15.08831079  1303,6917.908,95.438,541.44,538.105,0.0
52383.0,STARLINK-3811,PAYLOAD,2022-11-01 00:00:02,15.08857977,0.0002435,53.2176,276.9613,33.5407,120.6748,-0.00057909,-9.498e-05,0.0,0 STARLINK-3811,1 52383U 22045BE  22305.00002315 -.00009498  00000-0 -57909-3 0  9992,2 52383  53.2176 276.9613 0002435  33.5407 120.6748 15.08857977 31174,6917.825,95.436,541.375,538.006,0.0
52383.0,STARLINK-3811,PAYLOAD,2022-11-01 14:00:01,15.08855796,0.0002503,53.2169,274.3431,30.0421,54.419,-0.0010482999999999,-0.00016941,0.0,0 STARLINK-3811,1 52383U 22045BE  22305.58334491 -.00016941  00000-0 -10483-2 0  9994,2 52383  53.2169 274.3431 0002503  30.0421  54.4190 15.08855796  1304,6917.831999999999,95.437,541.429,537.966,0.0
52383.0,STARLINK-3811,PAYLOAD,2022-11-01 22:00:00,15.08861707,0.0002352,53.2169,272.846,32.1142,63.9503,-0.002561,-0.00040842,0.0,0 STARLINK-3811,1 52383U 22045BE  22305.91667824 -.00040842  00000-0 -25610-2 0  9995,2 52383  53.2169 272.8460 0002352  32.1142  63.9503 15.08861707  1306,6917.814,95.436,541.306,538.052,0.0
